#aV2010  7 22  0  0   .00000000      96 DD+AD WGS84 FIT  NGA
## 1593 345600.00000000   900.00000000 55399  .0000000000000
+   31     1  2  3  4  5  6  7  8  9 10 11 12 13 14 15 16 17
+         18 19 20 21 22 23 24 26 27 28 29 30 31 32  0  0  0
+          0  0  0  0  0  0  0  0  0  0  0  0  0  0  0  0  0
+          0  0  0  0  0  0  0  0  0  0  0  0  0  0  0  0  0
+          0  0  0  0  0  0  0  0  0  0  0  0  0  0  0  0  0
++         0  0  0  0  0  0  0  0  0  0  0  0  0  0  0  0  0
++         0  0  0  0  0  0  0  0  0  0  0  0  0  0  0  0  0
++         0  0  0  0  0  0  0  0  0  0  0  0  0  0  0  0  0
++         0  0  0  0  0  0  0  0  0  0  0  0  0  0  0  0  0
++         0  0  0  0  0  0  0  0  0  0  0  0  0  0  0  0  0
%c cc cc ccc ccc cccc cccc cccc cccc ccccc ccccc ccccc ccccc
%c cc cc ccc ccc cccc cccc cccc cccc ccccc ccccc ccccc ccccc
%f  0.0000000  0.000000000  0.00000000000  0.000000000000000
%f  0.0000000  0.000000000  0.00000000000  0.000000000000000
%i    0    0    0    0      0      0      0      0         0
%i    0    0    0    0      0      0      0      0         0
/*      NGA, ST. LOUIS,MO.                                  
/*   EPHEMERIS COMPUTED FROM  3 DAYS OF DATA                
/* CCCCCCCCCCCCCCCCCCCCCCCCCCCCCCCCCCCCCCCCCCCCCCCCCCCCCCCCC
/* CCCCCCCCCCCCCCCCCCCCCCCCCCCCCCCCCCCCCCCCCCCCCCCCCCCCCCCCC
*  2010  7 22 12  0   .00000000                                                 
P  1  -7573.293495 -13267.103340 -21833.760609   -143.804101                    
V  1  21700.931997 -16802.386001   2821.784117      -.040665                    
P  2  13566.316139  17964.886379 -14456.092448    274.852295                    
V  2    613.731390  18345.628679  22928.183814       .030240                    
P  3 -24397.891715 -10087.293453  -4650.550918    584.913836                    
V  3   6117.830042  -1924.751373 -30048.770788       .050317                    
P  4   6316.155019  25353.256916  -3706.111286    130.227281                    
V  4  -3095.657090   5041.338273  31005.554908       .080091                    
P  5  17215.241599   4181.500508 -19828.246193    -16.376133                    
V  5 -19013.959053  16476.885973 -12955.822438      -.034451                    
P  6 -21544.814359 -13488.704214  -7806.638768    563.392515                    
V  6  10658.459308    183.285352 -28917.760169      -.143848                    
P  7  -7181.227932  20886.560139 -14629.757307     -1.793566                    
V  7  -4494.995450 -18159.593376 -23915.988243      -.001343                    
P  8   -586.249588  26006.734661  -3643.021913      6.180579                    
V  8  -2520.710827  -4506.075336 -32378.527788       .001381                    
P  9  14450.193916  -1590.380356  21682.550680     19.778720                    
V  9   4768.892981  28408.601869  -1040.405399       .022668                    
P 10   7214.229863  13831.986671 -21654.604818    -47.648584                    
V 10 -21974.521692  15903.361105   3208.008424      -.010372                    
P 11 -14913.303535   7413.303502  20405.800899    -77.307094                    
V 11 -10378.954481 -24812.208130   1778.089038      -.025918                    
P 12  22894.027252 -10562.560146   8136.851801    -91.007762                    
V 12  -6709.708328   8189.103337  29802.220825       .039455                    
P 13 -13047.277203   9173.840037 -21386.439548    301.259090                    
V 13 -23836.548841 -12114.309386   9364.506765      -.006839                    
P 14  -7928.470878 -17290.630210  18738.821430     70.470758                    
V 14  21660.954906   8870.793826  17347.266198       .040214                    
P 15  25389.650476   4788.588473   6444.454592   -235.730973                    
V 15   6607.096236   5531.243937 -30087.589658       .060180                    
P 16 -13094.638616  -8515.803754 -21487.948175    -92.035599                    
V 16  21708.272964 -16524.205055  -6397.214755      -.035911                    
P 17   5162.244338  17225.573182  19721.330364    163.086545                    
V 17 -23167.283317  -8768.301053  13587.821774       .018447                    
P 18  15286.844915 -19671.151774   8919.076373     82.356808                    
V 18  10976.200445  -3856.993191 -28597.207375       .023314                    
P 19 -24834.158035  -6388.766515   7558.598163    -51.613075                    
V 19  -7402.359612  -6421.475683 -29531.701413      -.029686                    
P 20 -22436.256669  12448.213150   6626.620973     53.064161                    
V 20   4378.446360  -8204.768248  29699.099081      -.004788                    
P 21   5430.562750 -22940.415968 -11242.707791    -75.692240                    
V 21   5643.400068  14488.695922 -26659.823992      -.026350                    
P 22   4537.407599 -19525.175289  17547.954674    166.949759                    
V 22  18976.361794 -11471.092268 -17939.243931      -.008295                    
P 23 -21124.080243   3225.962582 -16003.166931    361.909796                    
V 23 -18026.105684  -9108.565277  21661.372126      -.016599                    
P 24  -8793.834799 -23472.868735   9264.926823    306.498504                    
V 24   1622.203424 -11777.750623 -28303.802634       .031485                    
P 26  24335.286191  11073.434493    883.582711    -85.512462                    
V 26    926.325726   2175.863026 -32105.013153      -.062988                    
P 27  15665.261839   3317.104430  21900.713455    172.519385                    
V 27   4697.354479  25710.265802  -7313.260781       .036155                    
P 28  -7361.216304  19519.979010  16746.695932     -9.795003                    
V 28 -17515.971126  10692.421019 -21042.394542       .012119                    
P 29  13873.172579  -9516.323095 -20453.803565    136.326019                    
V 29  23577.442054  11430.767855  10667.922608       .026251                    
P 30  18630.328728 -18721.651674  -2956.749961    262.740172                    
V 30   4388.967365     91.992220  31407.461916       .032592                    
P 31  -7393.120123 -24691.950261  -5813.997029    -22.775226                    
V 31   1315.934689  -7926.007310  31077.602568       .026788                    
P 32 -22936.282322   4386.521669  12654.033882    -43.683178                    
V 32  11739.542214 -10685.155469  26009.843875      -.087302                    
EOF
